ONEWEB-0613             
1 56071U 23043AB  23223.69566381  .00000030  00000+0  41538-4 0  9994
2 56071  87.9194 106.3975 0002036 120.8439 239.2896 13.22693767 20533
ONEWEB-0630             
1 56072U 23043AC  23224.16714780  .00013550  00000+0  35943-1 0  9997
2 56072  87.8982 106.2725 0002711  65.9855 294.1559 13.15479358 20593
ONEWEB-0632             
1 56073U 23043AD  23224.58334491 -.00047621  00000+0 -12666+0 0  9994
2 56073  87.9025 106.2349 0001742 127.6472  63.6134 13.15832489 20652
ONEWEB-0633             
1 56074U 23043AE  23223.70214629 -.00001161  00000+0 -31230-2 0  9998
2 56074  87.8997 106.4104 0001904  88.8470 271.2879 13.15468310 20513
ONEWEB-0634             
1 56075U 23043AF  23224.58334491  .00045711  00000+0  12087+0 0  9999
2 56075  87.8991 106.2287 0001996  87.3449 213.8350 13.15499857 20627
ONEWEB-0635             
1 56076U 23043AG  23224.58334491  .00000013  00000+0  00000+0 0  9998
2 56076  87.9130 106.3119 0001833 104.2927 218.1560 13.18622775 20653
ONEWEB-0636             
1 56077U 23043AH  23224.58334491  .00000013  00000+0  00000+0 0  9999
2 56077  87.9039 106.2720 0001484  74.3673 294.8194 13.16599314 20638
ONEWEB-0637             
1 56078U 23043AJ  23223.72856378 -.00001221  00000+0 -29581-2 0  9990
2 56078  87.9198 106.4093 0002102  67.7579 292.3778 13.22522317 20535
